{
 "type": "FeatureCollection",
 "features": [
  {
   "type": "Feature",
   "geometry": {
    "type": "Point",
    "coordinates": [
     18.423,
     -33.921
    ]
   },
   "properties": {
    "site_id": "S07",
    "name": "Founders Garden",
    "subregion": "CBD",
    "rank": 1,
    "suitability": 74.31,
    "dev_ha": 2.4,
    "typology": "Infill",
    "ownership": "City",
    "rank_redress": 1,
    "rank_shift": 0,
    "group_area_1950": "Declared White",
    "redress_index": 92,
    "displacement_risk": 22,
    "impact_rank": 6,
    "impact_index": 71.15,
    "units_total": 528,
    "units_social": 343,
    "zone": "GB7",
    "height_storeys": 15,
    "asofright_u_ha": 300,
    "units_asofright": 528,
    "units_rezoning": 0,
    "zoning_note": "CBD business; no fixed height limit in the core",
    "dist_cbd_km": 0.45,
    "dist_transit_km": 0.6,
    "ndvi": 0.31,
    "ndbi": 0.22,
    "lst_anom_c": 2.4,
    "impervious_pct": 66,
    "tranche": "Tranche 1 (2027-2029)"
   }
  },
  {
   "type": "Feature",
   "geometry": {
    "type": "Point",
    "coordinates": [
     18.63,
     -33.899
    ]
   },
   "properties": {
    "site_id": "S16",
    "name": "Bellville CBD",
    "subregion": "Northern Metro",
    "rank": 2,
    "suitability": 71.11,
    "dev_ha": 18.0,
    "typology": "Brownfield-Infill",
    "ownership": "Mixed",
    "rank_redress": 3,
    "rank_shift": 1,
    "group_area_1950": "Declared White",
    "redress_index": 84,
    "displacement_risk": 34,
    "impact_rank": 1,
    "impact_index": 100.0,
    "units_total": 3600,
    "units_social": 2340,
    "zone": "GB5",
    "height_storeys": 12,
    "asofright_u_ha": 260,
    "units_asofright": 3600,
    "units_rezoning": 0,
    "zoning_note": "Voortrekker Road corridor; height incentive zone",
    "dist_cbd_km": 19.22,
    "dist_transit_km": 0.3,
    "ndvi": 0.14,
    "ndbi": 0.32,
    "lst_anom_c": 3.3,
    "impervious_pct": 84,
    "tranche": "Tranche 1 (2027-2029)"
   }
  },
  {
   "type": "Feature",
   "geometry": {
    "type": "Point",
    "coordinates": [
     18.431,
     -33.929
    ]
   },
   "properties": {
    "site_id": "S10",
    "name": "District Six",
    "subregion": "Inner City",
    "rank": 3,
    "suitability": 65.67,
    "dev_ha": 42.0,
    "typology": "Restitution",
    "ownership": "National-Restitution",
    "rank_redress": 2,
    "rank_shift": -1,
    "group_area_1950": "Declared White 1966; ~60 000 removed",
    "redress_index": 100,
    "displacement_risk": 12,
    "impact_rank": 3,
    "impact_index": 95.75,
    "units_total": 5460,
    "units_social": 3549,
    "zone": "GR2",
    "height_storeys": 6,
    "asofright_u_ha": 135,
    "units_asofright": 5460,
    "units_rezoning": 0,
    "zoning_note": "District Six restitution framework, ~6 storeys",
    "dist_cbd_km": 0.78,
    "dist_transit_km": 0.7,
    "ndvi": 0.21,
    "ndbi": 0.24,
    "lst_anom_c": 2.7,
    "impervious_pct": 58,
    "tranche": "Tranche 3 (2034-2037)"
   }
  },
  {
   "type": "Feature",
   "geometry": {
    "type": "Point",
    "coordinates": [
     18.44,
     -33.927
    ]
   },
   "properties": {
    "site_id": "S24",
    "name": "Sir Lowrys Road",
    "subregion": "Inner City",
    "rank": 4,
    "suitability": 62.06,
    "dev_ha": 2.8,
    "typology": "Infill",
    "ownership": "City",
    "rank_redress": 7,
    "rank_shift": 3,
    "group_area_1950": "Declared White; Coloured residents removed",
    "redress_index": 88,
    "displacement_risk": 70,
    "impact_rank": 14,
    "impact_index": 54.5,
    "units_total": 616,
    "units_social": 400,
    "zone": "MU2",
    "height_storeys": 10,
    "asofright_u_ha": 220,
    "units_asofright": 616,
    "units_rezoning": 0,
    "zoning_note": "Mixed Use 2; Foreshore-Woodstock interface",
    "dist_cbd_km": 1.49,
    "dist_transit_km": 0.4,
    "ndvi": 0.1,
    "ndbi": 0.33,
    "lst_anom_c": 3.4,
    "impervious_pct": 88,
    "tranche": "Tranche 2 (2030-2033)"
   }
  },
  {
   "type": "Feature",
   "geometry": {
    "type": "Point",
    "coordinates": [
     18.459,
     -33.93
    ]
   },
   "properties": {
    "site_id": "S06",
    "name": "Pickwick Road",
    "subregion": "Inner City",
    "rank": 5,
    "suitability": 60.49,
    "dev_ha": 1.2,
    "typology": "Infill",
    "ownership": "City",
    "rank_redress": 9,
    "rank_shift": 4,
    "group_area_1950": "Declared White; Coloured residents removed",
    "redress_index": 83,
    "displacement_risk": 74,
    "impact_rank": 25,
    "impact_index": 39.31,
    "units_total": 264,
    "units_social": 172,
    "zone": "MU1",
    "height_storeys": 4,
    "asofright_u_ha": 85,
    "units_asofright": 102,
    "units_rezoning": 162,
    "zoning_note": "Mixed Use 1; Woodstock-Salt River local area overlay",
    "dist_cbd_km": 3.27,
    "dist_transit_km": 0.3,
    "ndvi": 0.1,
    "ndbi": 0.32,
    "lst_anom_c": 3.3,
    "impervious_pct": 86,
    "tranche": "Tranche 1 (2027-2029)"
   }
  },
  {
   "type": "Feature",
   "geometry": {
    "type": "Point",
    "coordinates": [
     18.504,
     -33.94
    ]
   },
   "properties": {
    "site_id": "S11",
    "name": "Conradie Park",
    "subregion": "Pinelands",
    "rank": 6,
    "suitability": 59.8,
    "dev_ha": 22.0,
    "typology": "Brownfield-Delivered",
    "ownership": "Provincial",
    "rank_redress": 4,
    "rank_shift": -2,
    "group_area_1950": "Declared White",
    "redress_index": 87,
    "displacement_risk": 14,
    "impact_rank": 5,
    "impact_index": 76.73,
    "units_total": 3520,
    "units_social": 2288,
    "zone": "MU2",
    "height_storeys": 8,
    "asofright_u_ha": 180,
    "units_asofright": 3520,
    "units_rezoning": 0,
    "zoning_note": "Already rezoned; Conradie precinct plan",
    "dist_cbd_km": 7.56,
    "dist_transit_km": 0.9,
    "ndvi": 0.26,
    "ndbi": 0.21,
    "lst_anom_c": 2.0,
    "impervious_pct": 60,
    "tranche": "Tranche 1 (2027-2029)"
   }
  },
  {
   "type": "Feature",
   "geometry": {
    "type": "Point",
    "coordinates": [
     18.452,
     -33.931
    ]
   },
   "properties": {
    "site_id": "S05",
    "name": "Woodstock Hospital",
    "subregion": "Inner City",
    "rank": 7,
    "suitability": 59.71,
    "dev_ha": 1.9,
    "typology": "Adaptive-Reuse",
    "ownership": "Provincial",
    "rank_redress": 11,
    "rank_shift": 4,
    "group_area_1950": "Declared White; Coloured residents removed",
    "redress_index": 84,
    "displacement_risk": 82,
    "impact_rank": 20,
    "impact_index": 47.5,
    "units_total": 494,
    "units_social": 321,
    "zone": "CO1",
    "height_storeys": 0,
    "asofright_u_ha": 0,
    "units_asofright": 0,
    "units_rezoning": 494,
    "zoning_note": "Community (hospital); rezone to GR/MU, ~8 storeys likely",
    "dist_cbd_km": 2.66,
    "dist_transit_km": 0.5,
    "ndvi": 0.14,
    "ndbi": 0.29,
    "lst_anom_c": 3.2,
    "impervious_pct": 80,
    "tranche": "Tranche 2 (2030-2033)"
   }
  },
  {
   "type": "Feature",
   "geometry": {
    "type": "Point",
    "coordinates": [
     18.418,
     -33.913
    ]
   },
   "properties": {
    "site_id": "S09",
    "name": "Prestwich Precinct",
    "subregion": "Atlantic Seaboard",
    "rank": 8,
    "suitability": 57.65,
    "dev_ha": 1.6,
    "typology": "Infill",
    "ownership": "City",
    "rank_redress": 5,
    "rank_shift": -3,
    "group_area_1950": "Declared White; Prestwich burial ground",
    "redress_index": 93,
    "displacement_risk": 26,
    "impact_rank": 24,
    "impact_index": 39.49,
    "units_total": 352,
    "units_social": 229,
    "zone": "GB2",
    "height_storeys": 8,
    "asofright_u_ha": 180,
    "units_asofright": 288,
    "units_rezoning": 64,
    "zoning_note": "General Business; heritage burial-ground constraint",
    "dist_cbd_km": 1.44,
    "dist_transit_km": 0.8,
    "ndvi": 0.12,
    "ndbi": 0.3,
    "lst_anom_c": 2.5,
    "impervious_pct": 82,
    "tranche": "Tranche 2 (2030-2033)"
   }
  },
  {
   "type": "Feature",
   "geometry": {
    "type": "Point",
    "coordinates": [
     18.463,
     -33.928
    ]
   },
   "properties": {
    "site_id": "S04",
    "name": "Salt River Market",
    "subregion": "Inner City",
    "rank": 9,
    "suitability": 57.2,
    "dev_ha": 5.6,
    "typology": "Brownfield-Infill",
    "ownership": "City",
    "rank_redress": 13,
    "rank_shift": 4,
    "group_area_1950": "Declared White; Coloured residents removed",
    "redress_index": 82,
    "displacement_risk": 78,
    "impact_rank": 13,
    "impact_index": 55.24,
    "units_total": 1120,
    "units_social": 728,
    "zone": "GB2",
    "height_storeys": 6,
    "asofright_u_ha": 135,
    "units_asofright": 756,
    "units_rezoning": 364,
    "zoning_note": "General Business; Salt River regeneration overlay",
    "dist_cbd_km": 3.61,
    "dist_transit_km": 0.4,
    "ndvi": 0.11,
    "ndbi": 0.31,
    "lst_anom_c": 3.4,
    "impervious_pct": 84,
    "tranche": "Tranche 2 (2030-2033)"
   }
  },
  {
   "type": "Feature",
   "geometry": {
    "type": "Point",
    "coordinates": [
     18.418,
     -33.907
    ]
   },
   "properties": {
    "site_id": "S08",
    "name": "Helen Bowden",
    "subregion": "Atlantic Seaboard",
    "rank": 10,
    "suitability": 56.39,
    "dev_ha": 3.1,
    "typology": "Adaptive-Reuse",
    "ownership": "Provincial",
    "rank_redress": 6,
    "rank_shift": -4,
    "group_area_1950": "Declared White",
    "redress_index": 95,
    "displacement_risk": 20,
    "impact_rank": 18,
    "impact_index": 49.22,
    "units_total": 806,
    "units_social": 524,
    "zone": "CO1",
    "height_storeys": 0,
    "asofright_u_ha": 0,
    "units_asofright": 0,
    "units_rezoning": 806,
    "zoning_note": "Nurses home; Green Point height + view corridors ~8",
    "dist_cbd_km": 2.07,
    "dist_transit_km": 0.9,
    "ndvi": 0.19,
    "ndbi": 0.27,
    "lst_anom_c": 2.2,
    "impervious_pct": 74,
    "tranche": "Tranche 2 (2030-2033)"
   }
  },
  {
   "type": "Feature",
   "geometry": {
    "type": "Point",
    "coordinates": [
     18.585,
     -33.909
    ]
   },
   "properties": {
    "site_id": "S17",
    "name": "Parow / Elsies River",
    "subregion": "Northern Metro",
    "rank": 11,
    "suitability": 56.29,
    "dev_ha": 26.0,
    "typology": "Corridor-Infill",
    "ownership": "Mixed",
    "rank_redress": 14,
    "rank_shift": 3,
    "group_area_1950": "Coloured (Elsies River) / White (Parow)",
    "redress_index": 66,
    "displacement_risk": 36,
    "impact_rank": 7,
    "impact_index": 70.09,
    "units_total": 3640,
    "units_social": 2366,
    "zone": "GB2",
    "height_storeys": 6,
    "asofright_u_ha": 135,
    "units_asofright": 3510,
    "units_rezoning": 130,
    "zoning_note": "Corridor business/GR4 mix",
    "dist_cbd_km": 14.95,
    "dist_transit_km": 0.7,
    "ndvi": 0.17,
    "ndbi": 0.29,
    "lst_anom_c": 3.0,
    "impervious_pct": 78,
    "tranche": "Tranche 2 (2030-2033)"
   }
  },
  {
   "type": "Feature",
   "geometry": {
    "type": "Point",
    "coordinates": [
     18.523,
     -33.907
    ]
   },
   "properties": {
    "site_id": "S01",
    "name": "Wingfield",
    "subregion": "Northern Metro",
    "rank": 12,
    "suitability": 55.77,
    "dev_ha": 180.0,
    "typology": "Brownfield-Strategic",
    "ownership": "National",
    "rank_redress": 8,
    "rank_shift": -4,
    "group_area_1950": "State / military reserve",
    "redress_index": 88,
    "displacement_risk": 8,
    "impact_rank": 2,
    "impact_index": 95.78,
    "units_total": 25200,
    "units_social": 16380,
    "zone": "TR2",
    "height_storeys": 0,
    "asofright_u_ha": 0,
    "units_asofright": 0,
    "units_rezoning": 25200,
    "zoning_note": "Military reserve; no residential right, full rezoning",
    "dist_cbd_km": 9.34,
    "dist_transit_km": 1.4,
    "ndvi": 0.24,
    "ndbi": 0.18,
    "lst_anom_c": 2.6,
    "impervious_pct": 52,
    "tranche": "Tranche 3 (2034-2037)"
   }
  },
  {
   "type": "Feature",
   "geometry": {
    "type": "Point",
    "coordinates": [
     18.493,
     -33.904
    ]
   },
   "properties": {
    "site_id": "S02",
    "name": "Ysterplaat",
    "subregion": "Northern Metro",
    "rank": 13,
    "suitability": 53.64,
    "dev_ha": 95.0,
    "typology": "Brownfield-Strategic",
    "ownership": "National",
    "rank_redress": 10,
    "rank_shift": -3,
    "group_area_1950": "State / military reserve",
    "redress_index": 86,
    "displacement_risk": 10,
    "impact_rank": 4,
    "impact_index": 81.94,
    "units_total": 13300,
    "units_social": 8645,
    "zone": "TR2",
    "height_storeys": 0,
    "asofright_u_ha": 0,
    "units_asofright": 0,
    "units_rezoning": 13300,
    "zoning_note": "Military reserve; no residential right, full rezoning",
    "dist_cbd_km": 6.77,
    "dist_transit_km": 1.1,
    "ndvi": 0.27,
    "ndbi": 0.15,
    "lst_anom_c": 2.1,
    "impervious_pct": 48,
    "tranche": "Tranche 3 (2034-2037)"
   }
  },
  {
   "type": "Feature",
   "geometry": {
    "type": "Point",
    "coordinates": [
     18.517,
     -33.872
    ]
   },
   "properties": {
    "site_id": "S30",
    "name": "Phoenix / Milnerton",
    "subregion": "Blaauwberg",
    "rank": 14,
    "suitability": 51.49,
    "dev_ha": 20.0,
    "typology": "Infill",
    "ownership": "City",
    "rank_redress": 17,
    "rank_shift": 3,
    "group_area_1950": "Phoenix, Coloured resettlement area",
    "redress_index": 58,
    "displacement_risk": 26,
    "impact_rank": 10,
    "impact_index": 62.76,
    "units_total": 4400,
    "units_social": 2860,
    "zone": "GR2",
    "height_storeys": 5,
    "asofright_u_ha": 110,
    "units_asofright": 2200,
    "units_rezoning": 2200,
    "zoning_note": "General Residential 2",
    "dist_cbd_km": 10.4,
    "dist_transit_km": 1.7,
    "ndvi": 0.2,
    "ndbi": 0.27,
    "lst_anom_c": 2.4,
    "impervious_pct": 64,
    "tranche": "Tranche 2 (2030-2033)"
   }
  },
  {
   "type": "Feature",
   "geometry": {
    "type": "Point",
    "coordinates": [
     18.488,
     -33.925
    ]
   },
   "properties": {
    "site_id": "S13",
    "name": "Ndabeni / Maitland",
    "subregion": "Northern Metro",
    "rank": 15,
    "suitability": 51.49,
    "dev_ha": 34.0,
    "typology": "Brownfield-Industrial",
    "ownership": "Mixed",
    "rank_redress": 15,
    "rank_shift": 0,
    "group_area_1950": "Ndabeni African location, cleared 1930s",
    "redress_index": 80,
    "displacement_risk": 24,
    "impact_rank": 9,
    "impact_index": 64.64,
    "units_total": 5100,
    "units_social": 3315,
    "zone": "GI1",
    "height_storeys": 0,
    "asofright_u_ha": 0,
    "units_asofright": 0,
    "units_rezoning": 5100,
    "zoning_note": "General Industrial; rezoning to MU required",
    "dist_cbd_km": 5.9,
    "dist_transit_km": 0.6,
    "ndvi": 0.13,
    "ndbi": 0.33,
    "lst_anom_c": 3.5,
    "impervious_pct": 86,
    "tranche": "Tranche 2 (2030-2033)"
   }
  },
  {
   "type": "Feature",
   "geometry": {
    "type": "Point",
    "coordinates": [
     18.438,
     -33.916
    ]
   },
   "properties": {
    "site_id": "S03",
    "name": "Culemborg",
    "subregion": "Foreshore",
    "rank": 16,
    "suitability": 50.88,
    "dev_ha": 42.0,
    "typology": "Brownfield-Rail",
    "ownership": "National-Rail",
    "rank_redress": 12,
    "rank_shift": -4,
    "group_area_1950": "Industrial / rail reserve",
    "redress_index": 90,
    "displacement_risk": 6,
    "impact_rank": 8,
    "impact_index": 69.0,
    "units_total": 7980,
    "units_social": 5187,
    "zone": "TR2",
    "height_storeys": 0,
    "asofright_u_ha": 0,
    "units_asofright": 0,
    "units_rezoning": 7980,
    "zoning_note": "Rail reserve; Transnet release then rezoning",
    "dist_cbd_km": 1.62,
    "dist_transit_km": 0.5,
    "ndvi": 0.09,
    "ndbi": 0.34,
    "lst_anom_c": 3.8,
    "impervious_pct": 88,
    "tranche": "Tranche 3 (2034-2037)"
   }
  },
  {
   "type": "Feature",
   "geometry": {
    "type": "Point",
    "coordinates": [
     18.535,
     -33.933
    ]
   },
   "properties": {
    "site_id": "S14",
    "name": "Epping Market",
    "subregion": "Northern Metro",
    "rank": 17,
    "suitability": 50.84,
    "dev_ha": 28.0,
    "typology": "Brownfield-Industrial",
    "ownership": "City",
    "rank_redress": 16,
    "rank_shift": -1,
    "group_area_1950": "Industrial reserve",
    "redress_index": 74,
    "displacement_risk": 12,
    "impact_rank": 11,
    "impact_index": 60.82,
    "units_total": 4200,
    "units_social": 2730,
    "zone": "GI1",
    "height_storeys": 0,
    "asofright_u_ha": 0,
    "units_asofright": 0,
    "units_rezoning": 4200,
    "zoning_note": "General Industrial; market relocation then rezoning",
    "dist_cbd_km": 10.27,
    "dist_transit_km": 1.6,
    "ndvi": 0.12,
    "ndbi": 0.35,
    "lst_anom_c": 3.9,
    "impervious_pct": 90,
    "tranche": "Tranche 2 (2030-2033)"
   }
  },
  {
   "type": "Feature",
   "geometry": {
    "type": "Point",
    "coordinates": [
     18.62,
     -34.041
    ]
   },
   "properties": {
    "site_id": "S26",
    "name": "Highlands Drive Mitchells Plain",
    "subregion": "Cape Flats",
    "rank": 18,
    "suitability": 48.26,
    "dev_ha": 40.0,
    "typology": "Greenfield-Infill",
    "ownership": "City",
    "rank_redress": 21,
    "rank_shift": 3,
    "group_area_1950": "Mitchells Plain, built 1970s for the removed",
    "redress_index": 26,
    "displacement_risk": 18,
    "impact_rank": 16,
    "impact_index": 52.96,
    "units_total": 3400,
    "units_social": 2210,
    "zone": "GR1",
    "height_storeys": 4,
    "asofright_u_ha": 85,
    "units_asofright": 3400,
    "units_rezoning": 0,
    "zoning_note": "General Residential 1",
    "dist_cbd_km": 22.2,
    "dist_transit_km": 1.5,
    "ndvi": 0.21,
    "ndbi": 0.25,
    "lst_anom_c": 2.7,
    "impervious_pct": 56,
    "tranche": "Tranche 2 (2030-2033)"
   }
  },
  {
   "type": "Feature",
   "geometry": {
    "type": "Point",
    "coordinates": [
     18.718,
     -33.846
    ]
   },
   "properties": {
    "site_id": "S29",
    "name": "Wallacedene / Kraaifontein",
    "subregion": "Northern Metro",
    "rank": 19,
    "suitability": 47.87,
    "dev_ha": 36.0,
    "typology": "Corridor-Greenfield",
    "ownership": "City",
    "rank_redress": 23,
    "rank_shift": 4,
    "group_area_1950": "African / Coloured informal + RDP",
    "redress_index": 22,
    "displacement_risk": 20,
    "impact_rank": 17,
    "impact_index": 51.6,
    "units_total": 3240,
    "units_social": 2106,
    "zone": "SR2",
    "height_storeys": 3,
    "asofright_u_ha": 60,
    "units_asofright": 2160,
    "units_rezoning": 1080,
    "zoning_note": "Single Residential 2",
    "dist_cbd_km": 28.51,
    "dist_transit_km": 1.3,
    "ndvi": 0.22,
    "ndbi": 0.25,
    "lst_anom_c": 2.6,
    "impervious_pct": 54,
    "tranche": "Tranche 2 (2030-2033)"
   }
  },
  {
   "type": "Feature",
   "geometry": {
    "type": "Point",
    "coordinates": [
     18.517,
     -33.96
    ]
   },
   "properties": {
    "site_id": "S15",
    "name": "Athlone Power Station",
    "subregion": "Cape Flats",
    "rank": 20,
    "suitability": 47.42,
    "dev_ha": 45.0,
    "typology": "Brownfield-Industrial",
    "ownership": "City",
    "rank_redress": 19,
    "rank_shift": -1,
    "group_area_1950": "Declared Coloured",
    "redress_index": 52,
    "displacement_risk": 28,
    "impact_rank": 12,
    "impact_index": 59.34,
    "units_total": 6750,
    "units_social": 4388,
    "zone": "GI2",
    "height_storeys": 0,
    "asofright_u_ha": 0,
    "units_asofright": 0,
    "units_rezoning": 6750,
    "zoning_note": "Utility/industrial; rezoning plus remediation",
    "dist_cbd_km": 9.42,
    "dist_transit_km": 1.2,
    "ndvi": 0.16,
    "ndbi": 0.3,
    "lst_anom_c": 3.1,
    "impervious_pct": 72,
    "tranche": "Tranche 3 (2034-2037)"
   }
  },
  {
   "type": "Feature",
   "geometry": {
    "type": "Point",
    "coordinates": [
     18.69,
     -34.0
    ]
   },
   "properties": {
    "site_id": "S27",
    "name": "Blue Downs / Kleinvlei",
    "subregion": "Cape Flats",
    "rank": 21,
    "suitability": 47.35,
    "dev_ha": 48.0,
    "typology": "Corridor-Greenfield",
    "ownership": "City",
    "rank_redress": 22,
    "rank_shift": 1,
    "group_area_1950": "Coloured / African resettlement, 1980s",
    "redress_index": 24,
    "displacement_risk": 16,
    "impact_rank": 15,
    "impact_index": 53.94,
    "units_total": 4320,
    "units_social": 2808,
    "zone": "GR1",
    "height_storeys": 3,
    "asofright_u_ha": 60,
    "units_asofright": 2880,
    "units_rezoning": 1440,
    "zoning_note": "General Residential 1",
    "dist_cbd_km": 25.91,
    "dist_transit_km": 1.8,
    "ndvi": 0.23,
    "ndbi": 0.24,
    "lst_anom_c": 2.5,
    "impervious_pct": 52,
    "tranche": "Tranche 2 (2030-2033)"
   }
  },
  {
   "type": "Feature",
   "geometry": {
    "type": "Point",
    "coordinates": [
     18.669,
     -34.035
    ]
   },
   "properties": {
    "site_id": "S21",
    "name": "Kuyasa / Khayelitsha",
    "subregion": "Cape Flats",
    "rank": 22,
    "suitability": 45.61,
    "dev_ha": 30.0,
    "typology": "Infill-Upgrading",
    "ownership": "City",
    "rank_redress": 24,
    "rank_shift": 2,
    "group_area_1950": "Khayelitsha, founded 1983 for African relocation",
    "redress_index": 24,
    "displacement_risk": 30,
    "impact_rank": 21,
    "impact_index": 47.29,
    "units_total": 3300,
    "units_social": 2145,
    "zone": "GR1",
    "height_storeys": 3,
    "asofright_u_ha": 60,
    "units_asofright": 1800,
    "units_rezoning": 1500,
    "zoning_note": "General Residential 1; upgrading context",
    "dist_cbd_km": 25.69,
    "dist_transit_km": 1.1,
    "ndvi": 0.13,
    "ndbi": 0.28,
    "lst_anom_c": 3.0,
    "impervious_pct": 58,
    "tranche": "Tranche 2 (2030-2033)"
   }
  },
  {
   "type": "Feature",
   "geometry": {
    "type": "Point",
    "coordinates": [
     18.478,
     -33.937
    ]
   },
   "properties": {
    "site_id": "S12",
    "name": "Two Rivers / Oude Molen",
    "subregion": "Observatory",
    "rank": 23,
    "suitability": 44.85,
    "dev_ha": 60.0,
    "typology": "Greenfield-Sensitive",
    "ownership": "Provincial",
    "rank_redress": 18,
    "rank_shift": -5,
    "group_area_1950": "Declared White",
    "redress_index": 85,
    "displacement_risk": 30,
    "impact_rank": 19,
    "impact_index": 48.45,
    "units_total": 4200,
    "units_social": 2730,
    "zone": "OS2",
    "height_storeys": 0,
    "asofright_u_ha": 0,
    "units_asofright": 0,
    "units_rezoning": 4200,
    "zoning_note": "Open space + heritage; TRUP framework, heights ~4",
    "dist_cbd_km": 5.15,
    "dist_transit_km": 0.8,
    "ndvi": 0.44,
    "ndbi": 0.12,
    "lst_anom_c": 0.9,
    "impervious_pct": 32,
    "tranche": "Tranche 3 (2034-2037)"
   }
  },
  {
   "type": "Feature",
   "geometry": {
    "type": "Point",
    "coordinates": [
     18.647,
     -33.976
    ]
   },
   "properties": {
    "site_id": "S18",
    "name": "Delft Symphony",
    "subregion": "Cape Flats",
    "rank": 24,
    "suitability": 44.54,
    "dev_ha": 58.0,
    "typology": "Greenfield-Periphery",
    "ownership": "City",
    "rank_redress": 25,
    "rank_shift": 1,
    "group_area_1950": "Post-1990 resettlement area",
    "redress_index": 20,
    "displacement_risk": 22,
    "impact_rank": 22,
    "impact_index": 46.6,
    "units_total": 3770,
    "units_social": 2450,
    "zone": "GR1",
    "height_storeys": 3,
    "asofright_u_ha": 60,
    "units_asofright": 3480,
    "units_rezoning": 290,
    "zoning_note": "General Residential 1; densification needs departure",
    "dist_cbd_km": 21.33,
    "dist_transit_km": 2.8,
    "ndvi": 0.19,
    "ndbi": 0.26,
    "lst_anom_c": 2.8,
    "impervious_pct": 62,
    "tranche": "Tranche 2 (2030-2033)"
   }
  },
  {
   "type": "Feature",
   "geometry": {
    "type": "Point",
    "coordinates": [
     18.49,
     -33.568
    ]
   },
   "properties": {
    "site_id": "S28",
    "name": "Atlantis Wesfleur",
    "subregion": "Blaauwberg",
    "rank": 25,
    "suitability": 39.33,
    "dev_ha": 90.0,
    "typology": "Greenfield-Periphery",
    "ownership": "City",
    "rank_redress": 28,
    "rank_shift": 3,
    "group_area_1950": "Atlantis, built 1976 as a Coloured growth point",
    "redress_index": 10,
    "displacement_risk": 12,
    "impact_rank": 23,
    "impact_index": 40.27,
    "units_total": 5850,
    "units_social": 3802,
    "zone": "GR1",
    "height_storeys": 3,
    "asofright_u_ha": 60,
    "units_asofright": 5400,
    "units_rezoning": 450,
    "zoning_note": "Atlantis growth point; industrial-zoned balance",
    "dist_cbd_km": 40.15,
    "dist_transit_km": 6.8,
    "ndvi": 0.26,
    "ndbi": 0.21,
    "lst_anom_c": 1.6,
    "impervious_pct": 38,
    "tranche": "Tranche 2 (2030-2033)"
   }
  },
  {
   "type": "Feature",
   "geometry": {
    "type": "Point",
    "coordinates": [
     18.746,
     -34.064
    ]
   },
   "properties": {
    "site_id": "S20",
    "name": "Macassar",
    "subregion": "Helderberg",
    "rank": 26,
    "suitability": 39.08,
    "dev_ha": 66.0,
    "typology": "Greenfield-Periphery",
    "ownership": "City",
    "rank_redress": 26,
    "rank_shift": 0,
    "group_area_1950": "Declared Coloured",
    "redress_index": 18,
    "displacement_risk": 16,
    "impact_rank": 26,
    "impact_index": 36.71,
    "units_total": 4290,
    "units_social": 2788,
    "zone": "SR1",
    "height_storeys": 2,
    "asofright_u_ha": 40,
    "units_asofright": 2640,
    "units_rezoning": 1650,
    "zoning_note": "Single Residential; rezoning for anything denser",
    "dist_cbd_km": 33.47,
    "dist_transit_km": 3.4,
    "ndvi": 0.28,
    "ndbi": 0.19,
    "lst_anom_c": 1.8,
    "impervious_pct": 40,
    "tranche": "Tranche 2 (2030-2033)"
   }
  },
  {
   "type": "Feature",
   "geometry": {
    "type": "Point",
    "coordinates": [
     18.425,
     -34.178
    ]
   },
   "properties": {
    "site_id": "S22",
    "name": "Dido Valley",
    "subregion": "South Peninsula",
    "rank": 27,
    "suitability": 39.08,
    "dev_ha": 10.0,
    "typology": "Greenfield-Constrained",
    "ownership": "National",
    "rank_redress": 20,
    "rank_shift": -7,
    "group_area_1950": "Luyolo & Simon's Town removals; restitution site",
    "redress_index": 78,
    "displacement_risk": 10,
    "impact_rank": 28,
    "impact_index": 17.66,
    "units_total": 600,
    "units_social": 390,
    "zone": "SR1",
    "height_storeys": 2,
    "asofright_u_ha": 40,
    "units_asofright": 400,
    "units_rezoning": 200,
    "zoning_note": "Single Residential + Simons Town scenic/heritage overlay",
    "dist_cbd_km": 28.14,
    "dist_transit_km": 2.2,
    "ndvi": 0.42,
    "ndbi": 0.11,
    "lst_anom_c": 0.4,
    "impervious_pct": 26,
    "tranche": "Tranche 2 (2030-2033)"
   }
  },
  {
   "type": "Feature",
   "geometry": {
    "type": "Point",
    "coordinates": [
     18.57,
     -34.011
    ]
   },
   "properties": {
    "site_id": "S19",
    "name": "Philippi East",
    "subregion": "Cape Flats",
    "rank": 28,
    "suitability": 35.74,
    "dev_ha": 52.0,
    "typology": "Greenfield-Contested",
    "ownership": "Mixed",
    "rank_redress": 29,
    "rank_shift": 1,
    "group_area_1950": "African informal settlement, post-1980s",
    "redress_index": 22,
    "displacement_risk": 44,
    "impact_rank": 27,
    "impact_index": 28.33,
    "units_total": 3640,
    "units_social": 2366,
    "zone": "AG",
    "height_storeys": 0,
    "asofright_u_ha": 0,
    "units_asofright": 0,
    "units_rezoning": 3640,
    "zoning_note": "Agricultural; PHA policy conflict, rezoning contested",
    "dist_cbd_km": 16.51,
    "dist_transit_km": 1.9,
    "ndvi": 0.31,
    "ndbi": 0.2,
    "lst_anom_c": 2.3,
    "impervious_pct": 44,
    "tranche": "Tranche 3 (2034-2037)"
   }
  },
  {
   "type": "Feature",
   "geometry": {
    "type": "Point",
    "coordinates": [
     18.893,
     -34.077
    ]
   },
   "properties": {
    "site_id": "S25",
    "name": "Sir Lowrys Pass Village",
    "subregion": "Helderberg",
    "rank": 29,
    "suitability": 30.68,
    "dev_ha": 24.0,
    "typology": "Greenfield-Periphery",
    "ownership": "Mixed",
    "rank_redress": 30,
    "rank_shift": 1,
    "group_area_1950": "Declared Coloured",
    "redress_index": 16,
    "displacement_risk": 14,
    "impact_rank": 29,
    "impact_index": 11.62,
    "units_total": 1560,
    "units_social": 1014,
    "zone": "SR1",
    "height_storeys": 2,
    "asofright_u_ha": 40,
    "units_asofright": 960,
    "units_rezoning": 600,
    "zoning_note": "Single Residential; village edge",
    "dist_cbd_km": 46.42,
    "dist_transit_km": 5.2,
    "ndvi": 0.34,
    "ndbi": 0.17,
    "lst_anom_c": 1.4,
    "impervious_pct": 36,
    "tranche": "Tranche 2 (2030-2033)"
   }
  },
  {
   "type": "Feature",
   "geometry": {
    "type": "Point",
    "coordinates": [
     18.362,
     -34.027
    ]
   },
   "properties": {
    "site_id": "S23",
    "name": "Imizamo Yethu",
    "subregion": "South Peninsula",
    "rank": 30,
    "suitability": 26.35,
    "dev_ha": 8.0,
    "typology": "Infill-Upgrading",
    "ownership": "City",
    "rank_redress": 27,
    "rank_shift": -3,
    "group_area_1950": "Post-1990 African settlement in former White Hout Bay",
    "redress_index": 70,
    "displacement_risk": 34,
    "impact_rank": 30,
    "impact_index": 0.0,
    "units_total": 880,
    "units_social": 572,
    "zone": "GR1",
    "height_storeys": 3,
    "asofright_u_ha": 60,
    "units_asofright": 480,
    "units_rezoning": 400,
    "zoning_note": "General Residential 1; slope constrains built form",
    "dist_cbd_km": 12.72,
    "dist_transit_km": 4.6,
    "ndvi": 0.38,
    "ndbi": 0.16,
    "lst_anom_c": 0.6,
    "impervious_pct": 54,
    "tranche": "Tranche 3 (2034-2037)"
   }
  }
 ]
}